     2.10           N: GPS NAV DATA                         RINEX VERSION / TYPE
TPS2RIN 7.12        RIGTC, GO PECNY     20140218 000210 UTC PGM / RUN BY / DATE 
NAVSTAR NAVIGATION DATA FROM STATION GOPE (RIGTC, GO PECNY) COMMENT             
    .2049D-007  .0000D+000 -.1192D-006  .1192D-006          ION ALPHA           
    .1311D+006 -.6554D+005  .6554D+005 -.5898D+006          ION BETA            
    -.931322574615D-09  .000000000000D+00   319488     1780 DELTA-UTC: A0,A1,T,W
    16                                                      LEAP SECONDS        
                                                            END OF HEADER       
 7 14  2 17  4  0  0.0  .314746052027D-03  .420641299570D-11  .000000000000D+00
     .183000000000D+03 -.247500000000D+02  .400766693541D-08 -.102809311870D+01
    -.132620334625D-05  .703242409509D-02  .118110328913D-04  .515365447044D+04
     .100800000000D+06  .141561031342D-06 -.306304580822D+01 -.763684511185D-07
     .974467685531D+00  .156281250000D+03 -.283610164862D+01 -.774317967737D-08
    -.175721605224D-09  .100000000000D+01  .178000000000D+04  .000000000000D+00
     .200000000000D+01  .000000000000D+00 -.107102096081D-07  .183000000000D+03
     .100799000000D+06
11 14  2 17  4  0  0.0 -.464959535748D-03 -.329691829393D-11  .000000000000D+00
     .950000000000D+02 -.912187500000D+02  .622811656891D-08 -.812659346295D+00
    -.466033816338D-05  .147902973695D-01  .876188278198D-05  .515370128059D+04
     .100800000000D+06 -.121071934700D-06 -.256679220360D+00  .242143869400D-06
     .890498629391D+00  .171781250000D+03  .126345231810D+01 -.915038115010D-08
    -.484305887570D-09  .100000000000D+01  .178000000000D+04  .000000000000D+00
     .200000000000D+01  .000000000000D+00 -.116415321827D-07  .950000000000D+02
     .100799000000D+06
22 14  2 17  5 59 44.0  .213895924389D-03  .238742359215D-11  .000000000000D+00
     .400000000000D+01  .754687500000D+02  .526164774018D-08 -.240805777124D+01
     .382959842682D-05  .677352747880D-02  .775419175625D-05  .515373233032D+04
     .107984000000D+06 -.204890966415D-07  .109790320810D+01 -.800937414169D-07
     .923785318772D+00  .211375000000D+03 -.206361982740D+01 -.828534511788D-08
     .429660754238D-09  .100000000000D+01  .178000000000D+04  .000000000000D+00
     .200000000000D+01  .000000000000D+00 -.172294676304D-07  .400000000000D+01
     .107999000000D+06
 3 14  2 17  6  0  0.0  .326838809997D-03  .500222085975D-11  .000000000000D+00
     .170000000000D+03 -.241562500000D+02  .567773650052D-08  .150021880227D+01
    -.159814953804D-05  .167579252739D-01  .258348882198D-05  .515376313210D+04
     .108000000000D+06 -.249594449997D-06 -.114101774456D+01 -.402331352234D-06
     .937042649599D+00  .320531250000D+03  .136501993787D+01 -.887608401024D-08
    -.692886004340D-10  .100000000000D+01  .178000000000D+04  .000000000000D+00
     .400000000000D+01  .000000000000D+00 -.465661287308D-08  .170000000000D+03
     .107999000000D+06
 6 14  2 17  6  0  0.0  .278639607131D-03  .143245415529D-10  .000000000000D+00
     .740000000000D+02 -.330625000000D+02  .537093800684D-08 -.291489049428D+01
    -.161863863468D-05  .858308351599D-02  .275298953056D-05  .515367884827D+04
     .108000000000D+06 -.145286321640D-06 -.105953481676D+01  .931322574615D-08
     .943579132887D+00  .318218750000D+03 -.175140044817D+00 -.854142721330D-08
    -.146077513286D-09  .100000000000D+01  .178000000000D+04  .000000000000D+00
     .200000000000D+01  .000000000000D+00 -.512227416039D-08  .740000000000D+02
     .107999000000D+06
 7 14  2 17  6  0  0.0  .314775854349D-03  .420641299570D-11  .000000000000D+00
     .184000000000D+03 -.255625000000D+02  .401802450971D-08  .220931658462D-01
    -.124797224998D-05  .703215063550D-02  .121071934700D-04  .515365400314D+04
     .108000000000D+06  .102445483208D-06 -.306310178093D+01  .521540641785D-07
     .974465833476D+00  .153906250000D+03 -.283609903585D+01 -.784282668521D-08
    -.212151694112D-09  .100000000000D+01  .178000000000D+04  .000000000000D+00
     .200000000000D+01  .000000000000D+00 -.107102096081D-07  .184000000000D+03
     .107999000000D+06
11 14  2 17  6  0  0.0 -.464982818812D-03 -.329691829393D-11  .000000000000D+00
     .960000000000D+02 -.899375000000D+02  .627633286303D-08  .237525545550D+00
    -.450015068054D-05  .147903707111D-01  .881776213646D-05  .515370147896D+04
     .108000000000D+06 -.175088644028D-06 -.256745334017D+00  .100582838058D-06
     .890495094981D+00  .172875000000D+03  .126344377905D+01 -.918252534618D-08
    -.511092717635D-09  .100000000000D+01  .178000000000D+04  .000000000000D+00
     .200000000000D+01  .000000000000D+00 -.116415321827D-07  .960000000000D+02
     .107999000000D+06
15 14  2 17  6  0  0.0 -.163575168699D-03 -.204636307899D-11  .000000000000D+00
     .640000000000D+02 -.177187500000D+02  .543272629486D-08  .212863091206D+01
    -.931322574615D-06  .620630406775D-02  .350177288055D-05  .515364169884D+04
     .108000000000D+06 -.651925802231D-07  .211541682509D+01  .670552253723D-07
     .937449939159D+00  .300437500000D+03  .252882206245D+00 -.866464663160D-08
    -.170364239212D-09  .100000000000D+01  .178000000000D+04  .000000000000D+00
     .200000000000D+01  .000000000000D+00 -.102445483208D-07  .640000000000D+02
     .107999000000D+06
16 14  2 17  6  0  0.0 -.231201294810D-03  .147792889038D-11  .000000000000D+00
     .500000000000D+02  .909062500000D+02  .410802825872D-08 -.253544712396D+01
     .458583235741D-05  .744235620368D-02  .757724046707D-05  .515380346680D+04
     .108000000000D+06 -.931322574615D-07 -.198325701500D+01 -.800937414169D-07
     .987135937283D+00  .251187500000D+03  .136226037698D+00 -.785175562857D-08
     .527521973408D-09  .100000000000D+01  .178000000000D+04  .000000000000D+00
     .200000000000D+01  .000000000000D+00 -.977888703346D-08  .500000000000D+02
     .107999000000D+06
18 14  2 17  6  0  0.0  .302384607494D-03  .216004991671D-11  .000000000000D+00
     .750000000000D+02  .726250000000D+02  .519307345521D-08 -.186350684055D+01
     .371970236301D-05  .147450761870D-01  .762194395065D-05  .515367097473D+04
     .108000000000D+06  .303611159325D-06  .109582761846D+01 -.109896063805D-06
     .926019934916D+00  .213875000000D+03 -.205918277785D+01 -.822034241026D-08
     .415017287136D-09  .100000000000D+01  .178000000000D+04  .000000000000D+00
     .200000000000D+01  .000000000000D+00 -.107102096081D-07  .750000000000D+02
     .107999000000D+06
19 14  2 17  6  0  0.0 -.439383089542D-03 -.238742359215D-11  .000000000000D+00
     .130000000000D+02 -.580625000000D+02  .494663461862D-08  .199354199034D+01
    -.294484198093D-05  .994610693306D-02  .389106571674D-05  .515357448578D+04
     .108000000000D+06 -.262632966042D-06 -.898267316874D+00  .139698386192D-06
     .964821332453D+00  .310031250000D+03  .403850936938D+00 -.843606568171D-08
    -.323584907182D-09  .100000000000D+01  .178000000000D+04  .000000000000D+00
     .200000000000D+01  .000000000000D+00 -.149011611938D-07  .130000000000D+02
     .107999000000D+06
21 14  2 17  6  0  0.0 -.344425905496D-03 -.216004991671D-11  .000000000000D+00
     .880000000000D+02 -.451562500000D+02  .504413868005D-08 -.816932664593D+00
    -.227987766266D-05  .210603732849D-01  .105667859316D-04  .515380424690D+04
     .108000000000D+06 -.856816768646D-07  .503434730077D-01  .458210706711D-06
     .932640828577D+00  .161750000000D+03 -.206317406748D+01 -.854928468345D-08
    -.326799326789D-09  .100000000000D+01  .178000000000D+04  .000000000000D+00
     .200000000000D+01  .000000000000D+00 -.111758708954D-07  .880000000000D+02
     .107999000000D+06
22 14  2 17  6  0  0.0  .213895924389D-03  .227373675443D-11  .000000000000D+00
     .100000000000D+03  .754687500000D+02  .526164774018D-08 -.240572405263D+01
     .382959842682D-05  .677352759521D-02  .775419175625D-05  .515373233223D+04
     .108000000000D+06 -.204890966415D-07  .109790306620D+01 -.800937414169D-07
     .923785317309D+00  .211375000000D+03 -.206361986690D+01 -.828570227561D-08
     .429660754238D-09  .100000000000D+01  .178000000000D+04  .000000000000D+00
     .400000000000D+01  .000000000000D+00 -.172294676304D-07  .100000000000D+03
     .107999000000D+06
27 14  2 17  6  0  0.0 -.188634730875D-04 -.102318153949D-11  .000000000000D+00
     .160000000000D+02 -.413125000000D+02  .499342228180D-08  .294235868155D+01
    -.209733843803D-05  .795738189481D-03  .316835939884D-05  .515366673660D+04
     .108000000000D+06 -.521540641785D-07 -.994351577363D+00 -.260770320892D-07
     .962296173464D+00  .318687500000D+03  .626646737781D-01 -.843356557757D-08
    -.193579491934D-09  .100000000000D+01  .178000000000D+04  .000000000000D+00
     .200000000000D+01  .000000000000D+00  .186264514923D-08  .160000000000D+02
     .107999000000D+06
14 14  2 17  6  0  0.0  .197626184672D-03 -.318323145621D-11  .000000000000D+00
     .310000000000D+02 -.361875000000D+02  .444625663301D-08  .269550095629D+01
    -.184401869774D-05  .725990126375D-02  .438652932644D-05  .515361662102D+04
     .108000000000D+06  .484287738800D-07  .222414623639D+01 -.838190317154D-07
     .970940367678D+00  .299031250000D+03 -.199056947539D+01 -.804426364730D-08
    -.213223167315D-09  .100000000000D+01  .178000000000D+04  .000000000000D+00
     .200000000000D+01  .000000000000D+00 -.884756445885D-08  .310000000000D+02
     .107999000000D+06
32 14  2 17  6  0  0.0 -.484278891236D-03  .648014975013D-11  .000000000000D+00
     .370000000000D+02  .728437500000D+02  .498699344258D-08  .607110988267D+00
     .374019145966D-05  .114959049970D-01  .712834298611D-05  .515350206566D+04
     .108000000000D+06  .305473804474D-06  .118783276157D+01  .465661287308D-07
     .947864027256D+00  .233406250000D+03 -.183064952933D+00 -.844070873226D-08
     .450375902821D-09  .100000000000D+01  .178000000000D+04  .000000000000D+00
     .200000000000D+01  .000000000000D+00 -.325962901115D-08  .370000000000D+02
     .107999000000D+06
